IRIDIUM 159             
1 43578U 18061K   25019.22156452  .00000544  00000+0  18717-3 0  9996
2 43578  86.3951 271.4646 0002079  78.0364 282.1065 14.34222682339718
IRIDIUM 180             
1 43922U 19002A   25019.56990847  .00000189  00000+0  60465-4 0  9999
2 43922  86.3971 208.2056 0001902  92.2404 267.9009 14.34218465315372
IRIDIUM 176             
1 43923U 19002B   25019.59505830  .00000770  00000+0  11819-3 0  9991
2 43923  86.6099 208.1996 0001639  57.2182 302.9193 14.72244284323687
IRIDIUM 168             
1 43924U 19002C   25019.56355117  .00000186  00000+0  59533-4 0  9997
2 43924  86.3972 208.2709 0001973  85.7276 274.4145 14.34218760315352
IRIDIUM 173             
1 43925U 19002D   25019.62063503 -.00000002  00000+0 -78388-5 0  9999
2 43925  86.3977 208.1572 0001813  92.6361 267.5042 14.34218314315343
IRIDIUM 169             
1 43926U 19002E   25019.58289218  .00000673  00000+0  21356-3 0  9991
2 43926  86.4202 239.7780 0001413 143.2930 216.8365 14.38615595316384
IRIDIUM 172             
1 43927U 19002F   25019.61429145 -.00000030  00000+0 -17950-4 0  9996
2 43927  86.3976 208.1662 0001852  87.1378 273.0030 14.34217193315358
IRIDIUM 175             
1 43928U 19002G   25019.52172580  .00002778  00000+0  43662-3 0  9992
2 43928  86.1541 169.2128 0002773 116.3040 243.8462 14.72246642323663
